[{"OBJECT_NAME":"STARLINK-35269","OBJECT_ID":"2025-207B","EPOCH":"2026-03-09T18:20:29.294880","MEAN_MOTION":15.05645312,"ECCENTRICITY":7.35e-5,"INCLINATION":97.6016,"RA_OF_ASC_NODE":138.7535,"ARG_OF_PERICENTER":91.3559,"MEAN_ANOMALY":268.7752,"EPHEMERIS_TYPE":0,"CLASSIFICATION_TYPE":"U","NORAD_CAT_ID":65593,"ELEMENT_SET_NO":999,"REV_AT_EPOCH":2826,"BSTAR":0.00011360993,"MEAN_MOTION_DOT":1.579e-5,"MEAN_MOTION_DDOT":0},{"OBJECT_NAME":"SL-3 DEB","OBJECT_ID":"1983-075D","EPOCH":"2026-03-09T23:36:44.953632","MEAN_MOTION":15.09588045,"ECCENTRICITY":0.00266029,"INCLINATION":97.8881,"RA_OF_ASC_NODE":62.5591,"ARG_OF_PERICENTER":309.2805,"MEAN_ANOMALY":113.3567,"EPHEMERIS_TYPE":0,"CLASSIFICATION_TYPE":"U","NORAD_CAT_ID":14229,"ELEMENT_SET_NO":999,"REV_AT_EPOCH":31646,"BSTAR":0.00023866318,"MEAN_MOTION_DOT":3.795e-5,"MEAN_MOTION_DDOT":0}]
